{
  "type": "FeatureCollection",
  "features": [
    {
      "type": "Feature",
      "properties": {
        "norad_id": 34908,
        "name": "COSMOS 2251 DEB",
        "group": "cosmos-2251-debris",
        "lat": -29.706307226869793,
        "lon": -7.304763591369813,
        "alt_km": 752.2574026088769,
        "timestamp": "2025-12-24T11:33:00.414143+00:00",
        "meta_object_name": "COSMOS 2251 DEB",
        "meta_object_id": "1993-036ADD",
        "meta_epoch": "2025-12-22T07:59:02.454720",
        "meta_mean_motion": 14.3742634,
        "meta_eccentricity": 0.00405228,
        "meta_inclination": 74.0578,
        "meta_ra_of_asc_node": 6.0278,
        "meta_arg_of_pericenter": 19.2122,
        "meta_mean_anomaly": 356.2877,
        "meta_ephemeris_type": 0,
        "meta_classification_type": "U",
        "meta_norad_cat_id": 34908,
        "meta_element_set_no": 999,
        "meta_rev_at_epoch": 87417,
        "meta_bstar": 0.00050310259,
        "meta_mean_motion_dot": 1.493e-05,
        "meta_mean_motion_ddot": 0,
        "tle_line1": "1 34908U 93036ADD 25356.33266730  .00001493  00000+0  50310-3 0  9994",
        "tle_line2": "2 34908  74.0578   6.0278 0040522  19.2122 356.2877 14.37426340874179"
      },
      "geometry": {
        "type": "Point",
        "coordinates": [
          -7.304763591369813,
          -29.706307226869793
        ]
      }
    },
    {
      "type": "Feature",
      "properties": {
        "norad_id": 34909,
        "name": "COSMOS 2251 DEB",
        "group": "cosmos-2251-debris",
        "lat": 11.3435172136748,
        "lon": 56.784002141419634,
        "alt_km": 695.4209938483955,
        "timestamp": "2025-12-24T11:33:00.414154+00:00",
        "meta_object_name": "COSMOS 2251 DEB",
        "meta_object_id": "1993-036ADE",
        "meta_epoch": "2025-12-24T03:22:22.850400",
        "meta_mean_motion": 14.77922194,
        "meta_eccentricity": 0.0083726,
        "meta_inclination": 74.0138,
        "meta_ra_of_asc_node": 54.1567,
        "meta_arg_of_pericenter": 187.2937,
        "meta_mean_anomaly": 172.7029,
        "meta_ephemeris_type": 0,
        "meta_classification_type": "U",
        "meta_norad_cat_id": 34909,
        "meta_element_set_no": 999,
        "meta_rev_at_epoch": 67020,
        "meta_bstar": 0.00050971,
        "meta_mean_motion_dot": 3.858e-05,
        "meta_mean_motion_ddot": 0,
        "tle_line1": "1 34909U 93036ADE 25358.14054225  .00003858  00000+0  50971-3 0  9990",
        "tle_line2": "2 34909  74.0138  54.1567 0083726 187.2937 172.7029 14.77922194670200"
      },
      "geometry": {
        "type": "Point",
        "coordinates": [
          56.784002141419634,
          11.3435172136748
        ]
      }
    },
    {
      "type": "Feature",
      "properties": {
        "norad_id": 34910,
        "name": "COSMOS 2251 DEB",
        "group": "cosmos-2251-debris",
        "lat": 13.130345637357653,
        "lon": -100.97328508136368,
        "alt_km": 821.8641980406192,
        "timestamp": "2025-12-24T11:33:00.414164+00:00",
        "meta_object_name": "COSMOS 2251 DEB",
        "meta_object_id": "1993-036ADF",
        "meta_epoch": "2025-12-23T22:45:30.280032",
        "meta_mean_motion": 13.37707493,
        "meta_eccentricity": 0.0467761,
        "meta_inclination": 73.8761,
        "meta_ra_of_asc_node": 83.7364,
        "meta_arg_of_pericenter": 200.8485,
        "meta_mean_anomaly": 282.4529,
        "meta_ephemeris_type": 0,
        "meta_classification_type": "U",
        "meta_norad_cat_id": 34910,
        "meta_element_set_no": 999,
        "meta_rev_at_epoch": 81674,
        "meta_bstar": 0.0010465,
        "meta_mean_motion_dot": 1.013e-05,
        "meta_mean_motion_ddot": 0,
        "tle_line1": "1 34910U 93036ADF 25357.94826713  .00001013  00000+0  10465-2 0  9992",
        "tle_line2": "2 34910  73.8761  83.7364 0467761 200.8485 282.4529 13.37707493816742"
      },
      "geometry": {
        "type": "Point",
        "coordinates": [
          -100.97328508136368,
          13.130345637357653
        ]
      }
    },
    {
      "type": "Feature",
      "properties": {
        "norad_id": 34911,
        "name": "COSMOS 2251 DEB",
        "group": "cosmos-2251-debris",
        "lat": 44.943745013164964,
        "lon": -121.03707601628108,
        "alt_km": 663.0832311828954,
        "timestamp": "2025-12-24T11:33:00.414174+00:00",
        "meta_object_name": "COSMOS 2251 DEB",
        "meta_object_id": "1993-036ADG",
        "meta_epoch": "2025-12-24T02:09:31.972032",
        "meta_mean_motion": 14.59387905,
        "meta_eccentricity": 0.0084133,
        "meta_inclination": 74.04,
        "meta_ra_of_asc_node": 223.1127,
        "meta_arg_of_pericenter": 345.7006,
        "meta_mean_anomaly": 165.8346,
        "meta_ephemeris_type": 0,
        "meta_classification_type": "U",
        "meta_norad_cat_id": 34911,
        "meta_element_set_no": 999,
        "meta_rev_at_epoch": 88752,
        "meta_bstar": 0.00010699,
        "meta_mean_motion_dot": 4.99e-06,
        "meta_mean_motion_ddot": 0,
        "tle_line1": "1 34911U 93036ADG 25358.08995338  .00000499  00000+0  10699-3 0  9996",
        "tle_line2": "2 34911  74.0400 223.1127 0084133 345.7006 165.8346 14.59387905887521"
      },
      "geometry": {
        "type": "Point",
        "coordinates": [
          -121.03707601628108,
          44.943745013164964
        ]
      }
    },
    {
      "type": "Feature",
      "properties": {
        "norad_id": 34913,
        "name": "COSMOS 2251 DEB",
        "group": "cosmos-2251-debris",
        "lat": 73.244082637184,
        "lon": -26.98682346825708,
        "alt_km": 765.5520631762502,
        "timestamp": "2025-12-24T11:33:00.414184+00:00",
        "meta_object_name": "COSMOS 2251 DEB",
        "meta_object_id": "1993-036ADJ",
        "meta_epoch": "2025-12-23T10:36:37.078848",
        "meta_mean_motion": 14.34640565,
        "meta_eccentricity": 0.00207883,
        "meta_inclination": 74.0284,
        "meta_ra_of_asc_node": 262.8852,
        "meta_arg_of_pericenter": 9.9036,
        "meta_mean_anomaly": 109.9742,
        "meta_ephemeris_type": 0,
        "meta_classification_type": "U",
        "meta_norad_cat_id": 34913,
        "meta_element_set_no": 999,
        "meta_rev_at_epoch": 65341,
        "meta_bstar": 5.2055056e-05,
        "meta_mean_motion_dot": 1.21e-06,
        "meta_mean_motion_ddot": 0,
        "tle_line1": "1 34913U 93036ADJ 25357.44209582  .00000121  00000+0  52055-4 0  9991",
        "tle_line2": "2 34913  74.0284 262.8852 0020788   9.9036 109.9742 14.34640565653411"
      },
      "geometry": {
        "type": "Point",
        "coordinates": [
          -26.98682346825708,
          73.244082637184
        ]
      }
    },
    {
      "type": "Feature",
      "properties": {
        "norad_id": 34918,
        "name": "COSMOS 2251 DEB",
        "group": "cosmos-2251-debris",
        "lat": -72.69923345418547,
        "lon": -135.24809700477954,
        "alt_km": 673.8416013574188,
        "timestamp": "2025-12-24T11:33:00.414195+00:00",
        "meta_object_name": "COSMOS 2251 DEB",
        "meta_object_id": "1993-036ADP",
        "meta_epoch": "2025-12-24T02:08:41.542080",
        "meta_mean_motion": 14.61378156,
        "meta_eccentricity": 0.0032876,
        "meta_inclination": 74.0715,
        "meta_ra_of_asc_node": 291.971,
        "meta_arg_of_pericenter": 257.5007,
        "meta_mean_anomaly": 118.3571,
        "meta_ephemeris_type": 0,
        "meta_classification_type": "U",
        "meta_norad_cat_id": 34918,
        "meta_element_set_no": 999,
        "meta_rev_at_epoch": 65502,
        "meta_bstar": 0.0016613,
        "meta_mean_motion_dot": 8.26e-05,
        "meta_mean_motion_ddot": 0,
        "tle_line1": "1 34918U 93036ADP 25358.08936970  .00008260  00000+0  16613-2 0  9995",
        "tle_line2": "2 34918  74.0715 291.9710 0032876 257.5007 118.3571 14.61378156655028"
      },
      "geometry": {
        "type": "Point",
        "coordinates": [
          -135.24809700477954,
          -72.69923345418547
        ]
      }
    },
    {
      "type": "Feature",
      "properties": {
        "norad_id": 34924,
        "name": "COSMOS 2251 DEB",
        "group": "cosmos-2251-debris",
        "lat": -40.295597520019356,
        "lon": -98.9111210668889,
        "alt_km": 688.0154156543094,
        "timestamp": "2025-12-24T11:33:00.414205+00:00",
        "meta_object_name": "COSMOS 2251 DEB",
        "meta_object_id": "1993-036ADV",
        "meta_epoch": "2025-12-23T21:54:48.053952",
        "meta_mean_motion": 14.60122119,
        "meta_eccentricity": 0.0053434,
        "meta_inclination": 74.0406,
        "meta_ra_of_asc_node": 68.1296,
        "meta_arg_of_pericenter": 149.9292,
        "meta_mean_anomaly": 326.1896,
        "meta_ephemeris_type": 0,
        "meta_classification_type": "U",
        "meta_norad_cat_id": 34924,
        "meta_element_set_no": 999,
        "meta_rev_at_epoch": 87886,
        "meta_bstar": 0.00083112,
        "meta_mean_motion_dot": 4.052e-05,
        "meta_mean_motion_ddot": 0,
        "tle_line1": "1 34924U 93036ADV 25357.91305618  .00004052  00000+0  83112-3 0  9996",
        "tle_line2": "2 34924  74.0406  68.1296 0053434 149.9292 326.1896 14.60122119878861"
      },
      "geometry": {
        "type": "Point",
        "coordinates": [
          -98.9111210668889,
          -40.295597520019356
        ]
      }
    }
  ]
}